[{"OBJECT_NAME":"STARLINK-35080","OBJECT_ID":"2025-194D","EPOCH":"2026-03-09T13:55:53.539392","MEAN_MOTION":15.05654303,"ECCENTRICITY":0.0002831,"INCLINATION":97.6011,"RA_OF_ASC_NODE":284.3232,"ARG_OF_PERICENTER":96.7581,"MEAN_ANOMALY":263.3968,"EPHEMERIS_TYPE":0,"CLASSIFICATION_TYPE":"U","NORAD_CAT_ID":65437,"ELEMENT_SET_NO":999,"REV_AT_EPOCH":2963,"BSTAR":0.00046867,"MEAN_MOTION_DOT":6.709e-5,"MEAN_MOTION_DDOT":0},{"OBJECT_NAME":"PEGASUS DEB","OBJECT_ID":"1994-029AET","EPOCH":"2026-03-08T20:58:13.181952","MEAN_MOTION":14.33766801,"ECCENTRICITY":0.03416791,"INCLINATION":81.9646,"RA_OF_ASC_NODE":115.4043,"ARG_OF_PERICENTER":327.5056,"MEAN_ANOMALY":30.5491,"EPHEMERIS_TYPE":0,"CLASSIFICATION_TYPE":"U","NORAD_CAT_ID":39308,"ELEMENT_SET_NO":999,"REV_AT_EPOCH":66634,"BSTAR":0.0017314365,"MEAN_MOTION_DOT":9.329e-5,"MEAN_MOTION_DDOT":0}]
